$$SOE
2459580.500000000, A.D. 2022-Jan-01 00:00:00.0000, -4.445470136472425E+08, -1.013645932782800E+07, -6.428004994439516E+06,
2459587.500000000, A.D. 2022-Jan-08 00:00:00.0000, -4.433650816518514E+08, -1.932301739767426E+07, -6.501820613908766E+06,
2459594.500000000, A.D. 2022-Jan-15 00:00:00.0000, -4.419370244223713E+08, -2.849883488678662E+07, -6.572024919302003E+06,
2459601.500000000, A.D. 2022-Jan-22 00:00:00.0000, -4.402620820052523E+08, -3.765871787179974E+07, -6.638556272127923E+06,
2459608.500000000, A.D. 2022-Jan-29 00:00:00.0000, -4.383395385035356E+08, -4.679740568019097E+07, -6.701352928223794E+06,
2459615.500000000, A.D. 2022-Feb-05 00:00:00.0000, -4.361687263882934E+08, -5.590956798050334E+07, -6.760352884713467E+06,
2459622.500000000, A.D. 2022-Feb-12 00:00:00.0000, -4.337490288672221E+08, -6.498980288445929E+07, -6.815494015053134E+06,
2459629.500000000, A.D. 2022-Feb-19 00:00:00.0000, -4.310798816458870E+08, -7.403263369099502E+07, -6.866714177092858E+06,
2459636.500000000, A.D. 2022-Feb-26 00:00:00.0000, -4.281607754038525E+08, -8.303250499608433E+07, -6.913951233187549E+06,
2459643.500000000, A.D. 2022-Mar-05 00:00:00.0000, -4.249912588392783E+08, -9.198377878694168E+07, -6.957143047819819E+06,
2459650.500000000, A.D. 2022-Mar-12 00:00:00.0000, -4.215709420735739E+08, -1.008807305883616E+08, -6.996227488828003E+06,
2459657.500000000, A.D. 2022-Mar-19 00:00:00.0000, -4.178995003589368E+08, -1.097175456368154E+08, -7.031142436841376E+06,
2459664.500000000, A.D. 2022-Mar-26 00:00:00.0000, -4.139766780824954E+08, -1.184883150939042E+08, -7.061825806039467E+06,
2459671.500000000, A.D. 2022-Apr-02 00:00:00.0000, -4.098022930184538E+08, -1.271870323614804E+08, -7.088215587804548E+06,
2459678.500000000, A.D. 2022-Apr-09 00:00:00.0000, -4.053762405773153E+08, -1.358075894998459E+08, -7.110249942616306E+06,
2459685.500000000, A.D. 2022-Apr-16 00:00:00.0000, -4.006984977163135E+08, -1.443437731012412E+08, -7.127867320116766E+06,
2459692.500000000, A.D. 2022-Apr-23 00:00:00.0000, -3.957691278005191E+08, -1.527892585421712E+08, -7.141006402807161E+06,
2459699.500000000, A.D. 2022-Apr-30 00:00:00.0000, -3.905882883064462E+08, -1.611376048710393E+08, -7.149605885851100E+06,
2459706.500000000, A.D. 2022-May-07 00:00:00.0000, -3.851562383309109E+08, -1.693822523188748E+08, -7.153604535849273E+06,
2459713.500000000, A.D. 2022-May-14 00:00:00.0000, -3.794733445431507E+08, -1.775165194096599E+08, -7.152941408194356E+06,
2459720.500000000, A.D. 2022-May-21 00:00:00.0000, -3.735400876379737E+08, -1.855335989274366E+08, -7.147555974999920E+06,
2459727.500000000, A.D. 2022-May-28 00:00:00.0000, -3.673570697963117E+08, -1.934265537184499E+08, -7.137388198574007E+06,
2459734.500000000, A.D. 2022-Jun-04 00:00:00.0000, -3.609250229064240E+08, -2.011883126643609E+08, -7.122378602222770E+06,
2459741.500000000, A.D. 2022-Jun-11 00:00:00.0000, -3.542448174337808E+08, -2.088116668501749E+08, -7.102468352289364E+06,
2459748.500000000, A.D. 2022-Jun-18 00:00:00.0000, -3.473174719345142E+08, -2.162892659420956E+08, -7.077599354594171E+06,
2459755.500000000, A.D. 2022-Jun-25 00:00:00.0000, -3.401441632169877E+08, -2.236136148406697E+08, -7.047714371356100E+06,
2459762.500000000, A.D. 2022-Jul-02 00:00:00.0000, -3.327262370521467E+08, -2.307770707117126E+08, -7.012757176970273E+06,
2459769.500000000, A.D. 2022-Jul-09 00:00:00.0000, -3.250652190779527E+08, -2.377718402597479E+08, -6.972672774722859E+06,
2459776.500000000, A.D. 2022-Jul-16 00:00:00.0000, -3.171628259891062E+08, -2.445899762080028E+08, -6.927407581655920E+06,
2459783.500000000, A.D. 2022-Jul-23 00:00:00.0000, -3.090209792461395E+08, -2.512233729600298E+08, -6.876909374421120E+06,
2459790.500000000, A.D. 2022-Jul-30 00:00:00.0000, -3.006418212561156E+08, -2.576637648577111E+08, -6.821127278996930E+06,
2459797.500000000, A.D. 2022-Aug-06 00:00:00.0000, -2.920277304645598E+08, -2.639027264564026E+08, -6.760012082545161E+06,
2459804.500000000, A.D. 2022-Aug-13 00:00:00.0000, -2.831813362196078E+08, -2.699316721374769E+08, -6.693516567696676E+06,
2459811.500000000, A.D. 2022-Aug-20 00:00:00.0000, -2.741055350121518E+08, -2.757418556431314E+08, -6.621595767275006E+06,
2459818.500000000, A.D. 2022-Aug-27 00:00:00.0000, -2.648035080547771E+08, -2.813243703510490E+08, -6.544207206131816E+06,
2459825.500000000, A.D. 2022-Sep-03 00:00:00.0000, -2.552787399796723E+08, -2.866701505019925E+08, -6.461311163260162E+06,
2459832.500000000, A.D. 2022-Sep-10 00:00:00.0000, -2.455350385908943E+08, -2.917699734706182E+08, -6.372870962041572E+06,
2459839.500000000, A.D. 2022-Sep-17 00:00:00.0000, -2.355765556627330E+08, -2.966144632064387E+08, -6.278853292993754E+06,
2459846.500000000, A.D. 2022-Sep-24 00:00:00.0000, -2.254078087380504E+08, -3.011940950324287E+08, -6.179228580244914E+06,
2459853.500000000, A.D. 2022-Oct-01 00:00:00.0000, -2.150337036921833E+08, -3.054992019728789E+08, -6.073971417187050E+06,
2459860.500000000, A.D. 2022-Oct-08 00:00:00.0000, -2.044595576504140E+08, -3.095199822512705E+08, -5.963061067702979E+06,
2459867.500000000, A.D. 2022-Oct-15 00:00:00.0000, -1.936911231735867E+08, -3.132465069354150E+08, -5.846481851224497E+06,
2459874.500000000, A.D. 2022-Oct-22 00:00:00.0000, -1.827346158606687E+08, -3.166687296044759E+08, -5.724223350951940E+06,
2459881.500000000, A.D. 2022-Oct-29 00:00:00.0000, -1.715967428211096E+08, -3.197765008390391E+08, -5.596280888214558E+06,
2459888.500000000, A.D. 2022-Nov-05 00:00:00.0000, -1.602847298511125E+08, -3.225595850162673E+08, -5.462656233055845E+06,
2459895.500000000, A.D. 2022-Nov-12 00:00:00.0000, -1.488063491895339E+08, -3.250076783761832E+08, -5.323358268048301E+06,
2459902.500000000, A.D. 2022-Nov-19 00:00:00.0000, -1.371699484544281E+08, -3.271104295540549E+08, -5.178403617467806E+06,
2459909.500000000, A.D. 2022-Nov-26 00:00:00.0000, -1.253844803436518E+08, -3.288574632248500E+08, -5.027817298186824E+06,
2459916.500000000, A.D. 2022-Dec-03 00:00:00.0000, -1.134595327375478E+08, -3.302384071310951E+08, -4.871633408510342E+06,
2459923.500000000, A.D. 2022-Dec-10 00:00:00.0000, -1.014053589201259E+08, -3.312429227500392E+08, -4.709895857912138E+06,
2459930.500000000, A.D. 2022-Dec-17 00:00:00.0000, -8.923290761554214E+07, -3.318607399104539E+08, -4.542659141772956E+06,
2459937.500000000, A.D. 2022-Dec-24 00:00:00.0000, -7.695385240803495E+07, -3.320816957094644E+08, -4.369989175018981E+06,
2459944.500000000, A.D. 2022-Dec-31 00:00:00.0000, -6.458061981234616E+07, -3.318957778947253E+08, -4.191964205691263E+06,
2459951.500000000, A.D. 2023-Jan-07 00:00:00.0000, -5.212641543532610E+07, -3.312931720032092E+08, -4.008675736768514E+06,
2459958.500000000, A.D. 2023-Jan-14 00:00:00.0000, -3.960524969228023E+07, -3.302643119866066E+08, -3.820229229821473E+06,
2459965.500000000, A.D. 2023-Jan-21 00:00:00.0000, -2.703196314828148E+07, -3.287999376878426E+08, -3.626744784290463E+06,
2459972.500000000, A.D. 2023-Jan-28 00:00:00.0000, -1.442224717012995E+07, -3.268911595144768E+08, -3.428358137254819E+06,
2459979.500000000, A.D. 2023-Feb-04 00:00:00.0000, -1.792659381358230E+06, -3.245295273759486E+08, -3.225221707782656E+06,
2459986.500000000, A.D. 2023-Feb-11 00:00:00.0000, 1.083936507017243E+07, -3.217071040979912E+08, -3.017505525757506E+06,
2459993.500000000, A.D. 2023-Feb-18 00:00:00.0000, 2.345550722168215E+07, -3.184165440655160E+08, -2.805398093518391E+06,
2460000.500000000, A.D. 2023-Feb-25 00:00:00.0000, 3.603656415782746E+07, -3.146511770747764E+08, -2.589107202535063E+06,
2460007.500000000, A.D. 2023-Mar-04 00:00:00.0000, 4.856245609180120E+07, -3.104050970658046E+08, -2.368860696001381E+06,
2460014.500000000, A.D. 2023-Mar-11 00:00:00.0000, 6.101224169566145E+07, -3.056732552760313E+08, -2.144907161358118E+06,
2460021.500000000, A.D. 2023-Mar-18 00:00:00.0000, 7.336414274926697E+07, -3.004515572422811E+08, -1.917516540705666E+06,
2460028.500000000, A.D. 2023-Mar-25 00:00:00.0000, 8.559557932739432E+07, -2.947369628971115E+08, -1.686980658980206E+06,
2460035.500000000, A.D. 2023-Apr-01 00:00:00.0000, 9.768321692833671E+07, -2.885275883681547E+08, -1.453613652195275E+06,
2460042.500000000, A.D. 2023-Apr-08 00:00:00.0000, 1.096030258358960E+08, -2.818228070466330E+08, -1.217752113735944E+06,
2460049.500000000, A.D. 2023-Apr-15 00:00:00.0000, 1.213303511745489E+08, -2.746233496036798E+08, -9.797548091691732E+05,
2460056.500000000, A.D. 2023-Apr-22 00:00:00.0000, 1.328399961109967E+08, -2.669314043625930E+08, -7.400023499470651E+05,
2460063.500000000, A.D. 2023-Apr-29 00:00:00.0000, 1.441063213815734E+08, -2.587507139312040E+08, -4.988968685717732E+05,
2460070.500000000, A.D. 2023-May-06 00:00:00.0000, 1.551033595769342E+08, -2.500866642917419E+08, -2.568613654639125E+05,
2460077.500000000, A.D. 2023-May-13 00:00:00.0000, 1.658049430956022E+08, -2.409463650689874E+08, -1.433869106832147E+04,
2460084.500000000, A.D. 2023-May-20 00:00:00.0000, 1.761848455405239E+08, -2.313387191882531E+08, 2.282097910307199E+05,
2460091.500000000, A.D. 2023-May-27 00:00:00.0000, 1.862169359038540E+08, -2.212744796251685E+08, 4.703058506104946E+05,
2460098.500000000, A.D. 2023-Jun-03 00:00:00.0000, 1.958753443293278E+08, -2.107662909162463E+08, 7.114563483844995E+05,
2460105.500000000, A.D. 2023-Jun-10 00:00:00.0000, 2.051346377680420E+08, -1.998287132402908E+08, 9.511554983816296E+05,
2460112.500000000, A.D. 2023-Jun-17 00:00:00.0000, 2.139700034685729E+08, -1.884782271130525E+08, 1.188887410196781E+06,
2460119.500000000, A.D. 2023-Jun-24 00:00:00.0000, 2.223574380592090E+08, -1.767332169028048E+08, 1.424128865921058E+06,
2460126.500000000, A.D. 2023-Jul-01 00:00:00.0000, 2.302739395417053E+08, -1.646139309869414E+08, 1.656352348399237E+06,
2460133.500000000, A.D. 2023-Jul-08 00:00:00.0000, 2.376976972691185E+08, -1.521424168482779E+08, 1.885029504983433E+06,
2460140.500000000, A.D. 2023-Jul-15 00:00:00.0000, 2.446082751360586E+08, -1.393424335967382E+08, 2.109634885888822E+06,
$$EOE